start=new Date('2021-09-05T00:00:00.000Z').valueOf();
sats=[{"EPOCH":"2021-09-04T16:56:07.318464","MEAN_MOTION":"15.06393355","OBJECT_ID":"2020-019AH","FILE":"3108751","ELEMENT_SET_NO":"999","MEAN_MOTION_DDOT":"0.0000000000000","GP_ID":"184103692","TLE_LINE1":"1 45391U 20019AH  21247.70564026 -.00000878  00000-0 -40069-4 0  9998","REF_FRAME":"TEME","ARG_OF_PERICENTER":"113.1345","CENTER_NAME":"EARTH","TIME_SYSTEM":"UTC","REV_AT_EPOCH":"8149","MEAN_ELEMENT_THEORY":"SGP4","RA_OF_ASC_NODE":"340.2222","TLE_LINE2":"2 45391  53.0560 340.2222 0001034 113.1345 246.9753 15.06393355 81492","BSTAR":"-0.00004006900000","MEAN_MOTION_DOT":"-0.00000878","ECCENTRICITY":"0.00010340","PERIAPSIS":"546.518","LAUNCH_DATE":"2020-03-18","CLASSIFICATION_TYPE":"U","RCS_SIZE":"LARGE","DECAY_DATE":null,"APOAPSIS":"547.950","PERIOD":"95.593","INCLINATION":"53.0560","SITE":"AFETR","OBJECT_TYPE":"PAYLOAD","NORAD_CAT_ID":"45391","OBJECT_NAME":"STARLINK-1289","SEMIMAJOR_AXIS":"6925.369","EPHEMERIS_TYPE":"0","COUNTRY_CODE":"US","MEAN_ANOMALY":"246.9753"},{"ARG_OF_PERICENTER":"148.2165","CENTER_NAME":"EARTH","REF_FRAME":"TEME","TIME_SYSTEM":"UTC","BSTAR":"0.00029049000000","MEAN_ELEMENT_THEORY":"SGP4","REV_AT_EPOCH":"8149","RA_OF_ASC_NODE":"338.0132","TLE_LINE2":"2 45392  52.9950 338.0132 0001518 148.2165 211.8915 15.07476920 81497","LAUNCH_DATE":"2020-03-18","PERIAPSIS":"542.864","MEAN_MOTION_DOT":"0.00004173","ECCENTRICITY":"0.00015180","FILE":"3108751","EPOCH":"2021-09-04T15:37:04.672992","MEAN_MOTION":"15.07476920","OBJECT_ID":"2020-019AJ","ELEMENT_SET_NO":"999","TLE_LINE1":"1 45392U 20019AJ  21247.65074853  .00004173  00000-0  29049-3 0  9991","GP_ID":"184102940","MEAN_MOTION_DDOT":"0.0000000000000","NORAD_CAT_ID":"45392","COUNTRY_CODE":"US","EPHEMERIS_TYPE":"0","OBJECT_NAME":"STARLINK-1290","SEMIMAJOR_AXIS":"6922.050","MEAN_ANOMALY":"211.8915","APOAPSIS":"544.966","PERIOD":"95.524","CLASSIFICATION_TYPE":"U","DECAY_DATE":null,"RCS_SIZE":"LARGE","INCLINATION":"52.9950","SITE":"AFETR","OBJECT_TYPE":"PAYLOAD"},{"NORAD_CAT_ID":"45393","MEAN_ANOMALY":"242.2116","SEMIMAJOR_AXIS":"6925.355","OBJECT_NAME":"STARLINK-1291","COUNTRY_CODE":"US","EPHEMERIS_TYPE":"0","RCS_SIZE":"LARGE","DECAY_DATE":null,"CLASSIFICATION_TYPE":"U","PERIOD":"95.592","APOAPSIS":"547.847","OBJECT_TYPE":"PAYLOAD","SITE":"AFETR","INCLINATION":"53.0553","TIME_SYSTEM":"UTC","REF_FRAME":"TEME","CENTER_NAME":"EARTH","ARG_OF_PERICENTER":"117.8965","MEAN_MOTION_DOT":"-0.00000402","ECCENTRICITY":"0.00009060","PERIAPSIS":"546.592","LAUNCH_DATE":"2020-03-18","RA_OF_ASC_NODE":"340.3957","TLE_LINE2":"2 45393  53.0553 340.3957 0000906 117.8965 242.2116 15.06397919 81524","MEAN_ELEMENT_THEORY":"SGP4","REV_AT_EPOCH":"8152","BSTAR":"-0.00000807720000","OBJECT_ID":"2020-019AK","MEAN_MOTION":"15.06397919","EPOCH":"2021-09-04T16:03:02.100384","FILE":"3108751","GP_ID":"184103190","MEAN_MOTION_DDOT":"0.0000000000000","TLE_LINE1":"1 45393U 20019AK  21247.66877431 -.00000402  00000-0 -80772-5 0  9991","ELEMENT_SET_NO":"999"},{"NORAD_CAT_ID":"45394","EPHEMERIS_TYPE":"0","COUNTRY_CODE":"US","SEMIMAJOR_AXIS":"6925.320","OBJECT_NAME":"STARLINK-1292","MEAN_ANOMALY":"252.1383","PERIOD":"95.592","APOAPSIS":"547.879","RCS_SIZE":"LARGE","DECAY_DATE":null,"CLASSIFICATION_TYPE":"U","SITE":"AFETR","INCLINATION":"53.0556","OBJECT_TYPE":"PAYLOAD","CENTER_NAME":"EARTH","ARG_OF_PERICENTER":"107.9715","REF_FRAME":"TEME","TIME_SYSTEM":"UTC","BSTAR":"-0.00000464750000","TLE_LINE2":"2 45394  53.0556 340.2601 0001002 107.9715 252.1383 15.06409425 81504","RA_OF_ASC_NODE":"340.2601","REV_AT_EPOCH":"8150","MEAN_ELEMENT_THEORY":"SGP4","PERIAPSIS":"546.491","LAUNCH_DATE":"2020-03-18","ECCENTRICITY":"0.00010020","MEAN_MOTION_DOT":"-0.00000351","FILE":"3108751","OBJECT_ID":"2020-019AL","MEAN_MOTION":"15.06409425","EPOCH":"2021-09-04T16:45:30.254112","ELEMENT_SET_NO":"999","TLE_LINE1":"1 45394U 20019AL  21247.69826683 -.00000351  00000-0 -46475-5 0  9993","GP_ID":"184103442","MEAN_MOTION_DDOT":"0.0000000000000"},{"TLE_LINE1":"1 45395U 20019AM  21247.66143512  .00002162  00000-0  16398-3 0  9993","GP_ID":"184104192","MEAN_MOTION_DDOT":"0.0000000000000","ELEMENT_SET_NO":"999","FILE":"3108751","EPOCH":"2021-09-04T15:52:27.994368","MEAN_MOTION":"15.06402057","OBJECT_ID":"2020-019AM","LAUNCH_DATE":"2020-03-18","PERIAPSIS":"546.418","MEAN_MOTION_DOT":"0.00002162","ECCENTRICITY":"0.00011390","BSTAR":"0.00016398000000","MEAN_ELEMENT_THEORY":"SGP4","REV_AT_EPOCH":"8094","TLE_LINE2":"2 45395  53.0557 340.4289 0001139 135.8589 224.2491 15.06402057 80941","RA_OF_ASC_NODE":"340.4289","TIME_SYSTEM":"UTC","ARG_OF_PERICENTER":"135.8589","CENTER_NAME":"EARTH","REF_FRAME":"TEME","OBJECT_TYPE":"PAYLOAD","INCLINATION":"53.0557","SITE":"AFETR","APOAPSIS":"547.996","PERIOD":"95.592","CLASSIFICATION_TYPE":"U","DECAY_DATE":null,"RCS_SIZE":"LARGE","MEAN_ANOMALY":"224.2491","EPHEMERIS_TYPE":"0","COUNTRY_CODE":"US","OBJECT_NAME":"STARLINK-1297","SEMIMAJOR_AXIS":"6925.342","NORAD_CAT_ID":"45395"},{"MEAN_ANOMALY":"236.7215","SEMIMAJOR_AXIS":"6925.351","OBJECT_NAME":"STARLINK-1303","COUNTRY_CODE":"US","EPHEMERIS_TYPE":"0","NORAD_CAT_ID":"45396","OBJECT_TYPE":"PAYLOAD","SITE":"AFETR","INCLINATION":"53.0551","DECAY_DATE":null,"RCS_SIZE":"LARGE","CLASSIFICATION_TYPE":"U","PERIOD":"95.592","APOAPSIS":"547.930","ECCENTRICITY":"0.00010320","MEAN_MOTION_DOT":"0.00001250","PERIAPSIS":"546.501","LAUNCH_DATE":"2020-03-18","RA_OF_ASC_NODE":"340.2118","TLE_LINE2":"2 45396  53.0551 340.2118 0001032 123.3872 236.7215 15.06399324 81488","REV_AT_EPOCH":"8148","MEAN_ELEMENT_THEORY":"SGP4","BSTAR":"0.00010278000000","TIME_SYSTEM":"UTC","REF_FRAME":"TEME","CENTER_NAME":"EARTH","ARG_OF_PERICENTER":"123.3872","MEAN_MOTION_DDOT":"0.0000000000000","GP_ID":"184102441","TLE_LINE1":"1 45396U 20019AN  21247.70935176  .00001250  00000-0  10278-3 0  9992","ELEMENT_SET_NO":"999","OBJECT_ID":"2020-019AN","EPOCH":"2021-09-04T17:01:27.992064","MEAN_MOTION":"15.06399324","FILE":"3108751"},{"REF_FRAME":"TEME","ARG_OF_PERICENTER":"121.9573","CENTER_NAME":"EARTH","TIME_SYSTEM":"UTC","REV_AT_EPOCH":"8158","MEAN_ELEMENT_THEORY":"SGP4","RA_OF_ASC_NODE":"340.4614","TLE_LINE2":"2 45397  53.0547 340.4614 0000981 121.9573 238.1512 15.06402027 81583","BSTAR":"-0.00006350100000","ECCENTRICITY":"0.00009810","MEAN_MOTION_DOT":"-0.00001227","LAUNCH_DATE":"2020-03-18","PERIAPSIS":"546.528","EPOCH":"2021-09-04T15:41:48.856416","MEAN_MOTION":"15.06402027","OBJECT_ID":"2020-019AP","FILE":"3108751","ELEMENT_SET_NO":"999","MEAN_MOTION_DDOT":"0.0000000000000","GP_ID":"184102691","TLE_LINE1":"1 45397U 20019AP  21247.65403769 -.00001227  00000-0 -63501-4 0  9999","NORAD_CAT_ID":"45397","OBJECT_NAME":"STARLINK-1307","SEMIMAJOR_AXIS":"6925.342","EPHEMERIS_TYPE":"0","COUNTRY_CODE":"US","MEAN_ANOMALY":"238.1512","CLASSIFICATION_TYPE":"U","RCS_SIZE":"LARGE","DECAY_DATE":null,"APOAPSIS":"547.887","PERIOD":"95.592","INCLINATION":"53.0547","SITE":"AFETR","OBJECT_TYPE":"PAYLOAD"},{"OBJECT_TYPE":"PAYLOAD","SITE":"AFETR","INCLINATION":"53.0549","PERIOD":"95.592","APOAPSIS":"547.820","DECAY_DATE":null,"RCS_SIZE":"LARGE","CLASSIFICATION_TYPE":"U","MEAN_ANOMALY":"251.2554","EPHEMERIS_TYPE":"0","COUNTRY_CODE":"US","SEMIMAJOR_AXIS":"6925.345","OBJECT_NAME":"STARLINK-1312","NORAD_CAT_ID":"45398","TLE_LINE1":"1 45398U 20019AQ  21247.64666672 -.00000415  00000-0 -90140-5 0  9991","GP_ID":"184103942","MEAN_MOTION_DDOT":"0.0000000000000","ELEMENT_SET_NO":"999","FILE":"3108751","OBJECT_ID":"2020-019AQ","MEAN_MOTION":"15.06401192","EPOCH":"2021-09-04T15:31:12.004608","PERIAPSIS":"546.600","LAUNCH_DATE":"2020-03-18","MEAN_MOTION_DOT":"-0.00000415","ECCENTRICITY":"0.00008810","BSTAR":"-0.00000901400000","RA_OF_ASC_NODE":"340.4920","TLE_LINE2":"2 45398  53.0549 340.4920 0000881 108.8530 251.2554 15.06401192 81519","MEAN_ELEMENT_THEORY":"SGP4","REV_AT_EPOCH":"8151","TIME_SYSTEM":"UTC","CENTER_NAME":"EARTH","ARG_OF_PERICENTER":"108.8530","REF_FRAME":"TEME"},{"MEAN_ELEMENT_THEORY":"SGP4","REV_AT_EPOCH":"8171","RA_OF_ASC_NODE":"330.3071","TLE_LINE2":"2 45399  53.0547 330.3071 0000898  87.3925 272.7167 15.06391943 81712","BSTAR":"0.00012608000000","ECCENTRICITY":"0.00008980","MEAN_MOTION_DOT":"0.00001597","LAUNCH_DATE":"2020-03-18","PERIAPSIS":"546.616","REF_FRAME":"TEME","ARG_OF_PERICENTER":"87.3925","CENTER_NAME":"EARTH","TIME_SYSTEM":"UTC","ELEMENT_SET_NO":"999","MEAN_MOTION_DDOT":"0.0000000000000","GP_ID":"184103693","TLE_LINE1":"1 45399U 20019AR  21247.68813640  .00001597  00000-0  12608-3 0  9996","EPOCH":"2021-09-04T16:30:54.984960","MEAN_MOTION":"15.06391943","OBJECT_ID":"2020-019AR","FILE":"3108751","OBJECT_NAME":"STARLINK-1255","SEMIMAJOR_AXIS":"6925.373","EPHEMERIS_TYPE":"0","COUNTRY_CODE":"US","MEAN_ANOMALY":"272.7167","NORAD_CAT_ID":"45399","INCLINATION":"53.0547","SITE":"AFETR","OBJECT_TYPE":"PAYLOAD","CLASSIFICATION_TYPE":"U","DECAY_DATE":null,"RCS_SIZE":"LARGE","APOAPSIS":"547.860","PERIOD":"95.593"},{"NORAD_CAT_ID":"45400","SEMIMAJOR_AXIS":"6925.334","OBJECT_NAME":"STARLINK-1213","COUNTRY_CODE":"US","EPHEMERIS_TYPE":"0","MEAN_ANOMALY":"225.2530","RCS_SIZE":"LARGE","DECAY_DATE":null,"CLASSIFICATION_TYPE":"U","PERIOD":"95.592","APOAPSIS":"547.871","SITE":"AFETR","INCLINATION":"53.0559","OBJECT_TYPE":"PAYLOAD","REF_FRAME":"TEME","CENTER_NAME":"EARTH","ARG_OF_PERICENTER":"134.8538","TIME_SYSTEM":"UTC","TLE_LINE2":"2 45400  53.0559 330.5379 0000970 134.8538 225.2530 15.06404768 81638","RA_OF_ASC_NODE":"330.5379","MEAN_ELEMENT_THEORY":"SGP4","REV_AT_EPOCH":"8163","BSTAR":"0.00010015000000","ECCENTRICITY":"0.00009700","MEAN_MOTION_DOT":"0.00001211","LAUNCH_DATE":"2020-03-18","PERIAPSIS":"546.527","OBJECT_ID":"2020-019AS","MEAN_MOTION":"15.06404768","EPOCH":"2021-09-04T15:16:35.537088","FILE":"3108751","ELEMENT_SET_NO":"999","MEAN_MOTION_DDOT":"0.0000000000000","GP_ID":"184102941","TLE_LINE1":"1 45400U 20019AS  21247.63652242  .00001211  00000-0  10015-3 0  9996"}];
